HIMAWARI-8              
1 40267U 14060A   23252.38591649 -.00000287  00000+0  00000+0 0  9995
2 40267   0.0131 223.7484 0000937 358.8310  45.1685  1.00273502 32715
